[{"OBJECT_NAME":"KUIPER-00158","OBJECT_ID":"2025-217Q","EPOCH":"2026-03-09T22:33:12.550176","MEAN_MOTION":14.80564414,"ECCENTRICITY":0.00012036,"INCLINATION":51.899,"RA_OF_ASC_NODE":44.3542,"ARG_OF_PERICENTER":56.9124,"MEAN_ANOMALY":303.1954,"EPHEMERIS_TYPE":0,"CLASSIFICATION_TYPE":"U","NORAD_CAT_ID":65776,"ELEMENT_SET_NO":999,"REV_AT_EPOCH":2488,"BSTAR":0.00081284145,"MEAN_MOTION_DOT":6.074e-5,"MEAN_MOTION_DDOT":0},{"OBJECT_NAME":"CZ-6A DEB","OBJECT_ID":"2022-151MF","EPOCH":"2026-03-09T16:42:09.866592","MEAN_MOTION":14.87246776,"ECCENTRICITY":0.0047609,"INCLINATION":98.5571,"RA_OF_ASC_NODE":128.9986,"ARG_OF_PERICENTER":197.25,"MEAN_ANOMALY":162.7098,"EPHEMERIS_TYPE":0,"CLASSIFICATION_TYPE":"U","NORAD_CAT_ID":54579,"ELEMENT_SET_NO":999,"REV_AT_EPOCH":9742,"BSTAR":0.0037329366,"MEAN_MOTION_DOT":0.00034427,"MEAN_MOTION_DDOT":0}]
